[{"OBJECT_NAME":"STARLINK-30757","OBJECT_ID":"2023-162P","EPOCH":"2025-09-10T09:41:30.178464","MEAN_MOTION":15.02530976,"ECCENTRICITY":0.00014289,"INCLINATION":43.0042,"RA_OF_ASC_NODE":32.4216,"ARG_OF_PERICENTER":262.3261,"MEAN_ANOMALY":97.7419,"EPHEMERIS_TYPE":0,"CLASSIFICATION_TYPE":"U","NORAD_CAT_ID":58131,"ELEMENT_SET_NO":999,"REV_AT_EPOCH":10518,"BSTAR":9.0611696e-5,"MEAN_MOTION_DOT":1.02e-5,"MEAN_MOTION_DDOT":0},{"OBJECT_NAME":"STARLINK-30770","OBJECT_ID":"2023-162Q","EPOCH":"2025-09-10T10:29:26.932128","MEAN_MOTION":15.02531175,"ECCENTRICITY":0.00015758,"INCLINATION":43.0041,"RA_OF_ASC_NODE":32.65,"ARG_OF_PERICENTER":269.3325,"MEAN_ANOMALY":90.7337,"EPHEMERIS_TYPE":0,"CLASSIFICATION_TYPE":"U","NORAD_CAT_ID":58132,"ELEMENT_SET_NO":999,"REV_AT_EPOCH":10518,"BSTAR":3.4852066e-5,"MEAN_MOTION_DOT":2.67e-6,"MEAN_MOTION_DDOT":0},{"OBJECT_NAME":"STARLINK-30758","OBJECT_ID":"2023-162R","EPOCH":"2025-09-10T09:39:53.256672","MEAN_MOTION":15.02586458,"ECCENTRICITY":0.00014527,"INCLINATION":43.0041,"RA_OF_ASC_NODE":32.4177,"ARG_OF_PERICENTER":273.2253,"MEAN_ANOMALY":86.8423,"EPHEMERIS_TYPE":0,"CLASSIFICATION_TYPE":"U","NORAD_CAT_ID":58133,"ELEMENT_SET_NO":999,"REV_AT_EPOCH":10518,"BSTAR":-0.00081026877,"MEAN_MOTION_DOT":-0.00011146,"MEAN_MOTION_DDOT":0},{"OBJECT_NAME":"STARLINK-30761","OBJECT_ID":"2023-162S","EPOCH":"2025-09-10T10:24:39.381696","MEAN_MOTION":15.02529412,"ECCENTRICITY":0.00014594,"INCLINATION":43.004,"RA_OF_ASC_NODE":32.6331,"ARG_OF_PERICENTER":267.8335,"MEAN_ANOMALY":92.2341,"EPHEMERIS_TYPE":0,"CLASSIFICATION_TYPE":"U","NORAD_CAT_ID":58134,"ELEMENT_SET_NO":999,"REV_AT_EPOCH":10518,"BSTAR":1.2354614e-5,"MEAN_MOTION_DOT":-3.7e-7,"MEAN_MOTION_DDOT":0},{"OBJECT_NAME":"STARLINK-30772","OBJECT_ID":"2023-162T","EPOCH":"2025-09-10T09:36:52.247808","MEAN_MOTION":15.025361,"ECCENTRICITY":0.00014793,"INCLINATION":43.0049,"RA_OF_ASC_NODE":33.2435,"ARG_OF_PERICENTER":265.4441,"MEAN_ANOMALY":94.6232,"EPHEMERIS_TYPE":0,"CLASSIFICATION_TYPE":"U","NORAD_CAT_ID":58135,"ELEMENT_SET_NO":999,"REV_AT_EPOCH":10517,"BSTAR":6.5575279e-5,"MEAN_MOTION_DOT":6.82e-6,"MEAN_MOTION_DDOT":0},{"OBJECT_NAME":"STARLINK-30776","OBJECT_ID":"2023-162U","EPOCH":"2025-09-10T09:32:04.656768","MEAN_MOTION":15.02533514,"ECCENTRICITY":0.0001304,"INCLINATION":43.0049,"RA_OF_ASC_NODE":33.2017,"ARG_OF_PERICENTER":269.7526,"MEAN_ANOMALY":90.3167,"EPHEMERIS_TYPE":0,"CLASSIFICATION_TYPE":"U","NORAD_CAT_ID":58136,"ELEMENT_SET_NO":999,"REV_AT_EPOCH":10517,"BSTAR":3.8692669e-5,"MEAN_MOTION_DOT":3.19e-6,"MEAN_MOTION_DDOT":0},{"OBJECT_NAME":"STARLINK-30782","OBJECT_ID":"2023-162V","EPOCH":"2025-09-09T11:07:06.230784","MEAN_MOTION":15.02515796,"ECCENTRICITY":0.000128,"INCLINATION":43.0048,"RA_OF_ASC_NODE":38.2513,"ARG_OF_PERICENTER":269.3449,"MEAN_ANOMALY":90.7247,"EPHEMERIS_TYPE":0,"CLASSIFICATION_TYPE":"U","NORAD_CAT_ID":58137,"ELEMENT_SET_NO":999,"REV_AT_EPOCH":10503,"BSTAR":0.00015600834,"MEAN_MOTION_DOT":1.903e-5,"MEAN_MOTION_DDOT":0},{"OBJECT_NAME":"STARLINK-30769","OBJECT_ID":"2023-162W","EPOCH":"2025-09-10T10:53:25.321920","MEAN_MOTION":15.02536531,"ECCENTRICITY":0.00013977,"INCLINATION":43.0046,"RA_OF_ASC_NODE":32.7867,"ARG_OF_PERICENTER":273.0303,"MEAN_ANOMALY":87.038,"EPHEMERIS_TYPE":0,"CLASSIFICATION_TYPE":"U","NORAD_CAT_ID":58138,"ELEMENT_SET_NO":999,"REV_AT_EPOCH":10518,"BSTAR":0.00010744999,"MEAN_MOTION_DOT":1.248e-5,"MEAN_MOTION_DDOT":0},{"OBJECT_NAME":"STARLINK-30775","OBJECT_ID":"2023-162X","EPOCH":"2025-09-10T10:58:13.101312","MEAN_MOTION":15.02541039,"ECCENTRICITY":0.00013354,"INCLINATION":43.005,"RA_OF_ASC_NODE":32.8094,"ARG_OF_PERICENTER":273.2505,"MEAN_ANOMALY":86.8185,"EPHEMERIS_TYPE":0,"CLASSIFICATION_TYPE":"U","NORAD_CAT_ID":58139,"ELEMENT_SET_NO":999,"REV_AT_EPOCH":10518,"BSTAR":-3.1172158e-5,"MEAN_MOTION_DOT":-6.25e-6,"MEAN_MOTION_DDOT":0},{"OBJECT_NAME":"STARLINK-30780","OBJECT_ID":"2023-162Y","EPOCH":"2025-09-10T02:49:59.063808","MEAN_MOTION":15.02540631,"ECCENTRICITY":0.0001009,"INCLINATION":43.0031,"RA_OF_ASC_NODE":34.5614,"ARG_OF_PERICENTER":273.8904,"MEAN_ANOMALY":86.1823,"EPHEMERIS_TYPE":0,"CLASSIFICATION_TYPE":"U","NORAD_CAT_ID":58140,"ELEMENT_SET_NO":999,"REV_AT_EPOCH":10513,"BSTAR":-5.0957946e-5,"MEAN_MOTION_DOT":-8.92e-6,"MEAN_MOTION_DDOT":0},{"OBJECT_NAME":"STARLINK-30802","OBJECT_ID":"2023-166A","EPOCH":"2025-09-09T13:32:01.968288","MEAN_MOTION":15.3015936,"ECCENTRICITY":0.00013058,"INCLINATION":53.1585,"RA_OF_ASC_NODE":341.2318,"ARG_OF_PERICENTER":108.1958,"MEAN_ANOMALY":251.9185,"EPHEMERIS_TYPE":0,"CLASSIFICATION_TYPE":"U","NORAD_CAT_ID":58150,"ELEMENT_SET_NO":999,"REV_AT_EPOCH":10544,"BSTAR":2.0330862e-5,"MEAN_MOTION_DOT":2.42e-6,"MEAN_MOTION_DDOT":0},{"OBJECT_NAME":"STARLINK-30834","OBJECT_ID":"2023-166B","EPOCH":"2025-09-09T23:02:22.635744","MEAN_MOTION":15.30172036,"ECCENTRICITY":0.00012976,"INCLINATION":53.1624,"RA_OF_ASC_NODE":339.2327,"ARG_OF_PERICENTER":94.6065,"MEAN_ANOMALY":265.5084,"EPHEMERIS_TYPE":0,"CLASSIFICATION_TYPE":"U","NORAD_CAT_ID":58151,"ELEMENT_SET_NO":999,"REV_AT_EPOCH":10550,"BSTAR":3.8121505e-5,"MEAN_MOTION_DOT":7.69e-6,"MEAN_MOTION_DDOT":0},{"OBJECT_NAME":"STARLINK-30833","OBJECT_ID":"2023-166C","EPOCH":"2025-09-10T05:09:30.044448","MEAN_MOTION":15.30237765,"ECCENTRICITY":0.00011201,"INCLINATION":53.1591,"RA_OF_ASC_NODE":338.1843,"ARG_OF_PERICENTER":108.8309,"MEAN_ANOMALY":251.2813,"EPHEMERIS_TYPE":0,"CLASSIFICATION_TYPE":"U","NORAD_CAT_ID":58152,"ELEMENT_SET_NO":999,"REV_AT_EPOCH":10554,"BSTAR":0.0012034113,"MEAN_MOTION_DOT":0.00035494,"MEAN_MOTION_DDOT":0},{"OBJECT_NAME":"STARLINK-30831","OBJECT_ID":"2023-166D","EPOCH":"2025-09-10T06:19:15.290688","MEAN_MOTION":15.30188206,"ECCENTRICITY":7.191e-5,"INCLINATION":53.1609,"RA_OF_ASC_NODE":337.7883,"ARG_OF_PERICENTER":69.4421,"MEAN_ANOMALY":290.6657,"EPHEMERIS_TYPE":0,"CLASSIFICATION_TYPE":"U","NORAD_CAT_ID":58153,"ELEMENT_SET_NO":999,"REV_AT_EPOCH":10555,"BSTAR":5.8819375e-5,"MEAN_MOTION_DOT":1.383e-5,"MEAN_MOTION_DDOT":0},{"OBJECT_NAME":"STARLINK-30797","OBJECT_ID":"2023-166E","EPOCH":"2025-09-09T23:06:55.829088","MEAN_MOTION":15.30175013,"ECCENTRICITY":0.00011521,"INCLINATION":53.1611,"RA_OF_ASC_NODE":339.2456,"ARG_OF_PERICENTER":119.0431,"MEAN_ANOMALY":241.0685,"EPHEMERIS_TYPE":0,"CLASSIFICATION_TYPE":"U","NORAD_CAT_ID":58154,"ELEMENT_SET_NO":999,"REV_AT_EPOCH":10535,"BSTAR":6.125648e-5,"MEAN_MOTION_DOT":1.454e-5,"MEAN_MOTION_DDOT":0},{"OBJECT_NAME":"STARLINK-30804","OBJECT_ID":"2023-166F","EPOCH":"2025-09-10T06:34:24.755232","MEAN_MOTION":15.30211253,"ECCENTRICITY":9.73e-5,"INCLINATION":53.1617,"RA_OF_ASC_NODE":337.8525,"ARG_OF_PERICENTER":103.6325,"MEAN_ANOMALY":256.4784,"EPHEMERIS_TYPE":0,"CLASSIFICATION_TYPE":"U","NORAD_CAT_ID":58155,"ELEMENT_SET_NO":999,"REV_AT_EPOCH":10555,"BSTAR":6.8402078e-5,"MEAN_MOTION_DOT":1.668e-5,"MEAN_MOTION_DDOT":0}]
