STARLINK-30757          
1 58131U 23162P   25253.40382151  .00001020  00000+0  90612-4 0  9997
2 58131  43.0042  32.4216 0001428 262.3261  97.7419 15.02530976105188
STARLINK-30770          
1 58132U 23162Q   25253.43711727  .00000267  00000+0  34852-4 0  9992
2 58132  43.0041  32.6500 0001575 269.3325  90.7337 15.02531175105181
STARLINK-30758          
1 58133U 23162R   25253.40269973 -.00011146  00000+0 -81027-3 0  9996
2 58133  43.0041  32.4177 0001452 273.2253  86.8423 15.02586458105184
STARLINK-30761          
1 58134U 23162S   25253.43378914 -.00000037  00000+0  12355-4 0  9991
2 58134  43.0040  32.6331 0001459 267.8335  92.2341 15.02529412105182
STARLINK-30772          
1 58135U 23162T   25253.40060472  .00000682  00000+0  65575-4 0  9993
2 58135  43.0049  33.2435 0001479 265.4441  94.6232 15.02536100105174
STARLINK-30776          
1 58136U 23162U   25253.39727612  .00000319  00000+0  38693-4 0  9996
2 58136  43.0049  33.2017 0001304 269.7526  90.3167 15.02533514105175
STARLINK-30782          
1 58137U 23162V   25252.46326656  .00001903  00000+0  15601-3 0  9990
2 58137  43.0048  38.2513 0001280 269.3449  90.7247 15.02515796105034
STARLINK-30769          
1 58138U 23162W   25253.45376530  .00001248  00000+0  10745-3 0  9993
2 58138  43.0046  32.7867 0001397 273.0303  87.0380 15.02536531105187
STARLINK-30775          
1 58139U 23162X   25253.45709608 -.00000625  00000+0 -31172-4 0  9998
2 58139  43.0050  32.8094 0001335 273.2505  86.8185 15.02541039105183
STARLINK-30780          
1 58140U 23162Y   25253.11804472 -.00000892  00000+0 -50958-4 0  9997
2 58140  43.0031  34.5614 0001009 273.8904  86.1823 15.02540631105132
STARLINK-30802          
1 58150U 23166A   25252.56391167  .00000242  00000+0  20331-4 0  9991
2 58150  53.1585 341.2318 0001305 108.1958 251.9185 15.30159360105449
STARLINK-30834          
1 58151U 23166B   25252.95998421  .00000769  00000+0  38122-4 0  9992
2 58151  53.1624 339.2327 0001297  94.6065 265.5084 15.30172036105500
STARLINK-30833          
1 58152U 23166C   25253.21493107  .00035494  00000+0  12034-2 0  9999
2 58152  53.1591 338.1843 0001120 108.8309 251.2813 15.30237765105546
STARLINK-30831          
1 58153U 23166D   25253.26337142  .00001383  00000+0  58819-4 0  9994
2 58153  53.1609 337.7883 0000719  69.4421 290.6657 15.30188206105555
STARLINK-30797          
1 58154U 23166E   25252.96314617  .00001454  00000+0  61256-4 0  9991
2 58154  53.1611 339.2456 0001152 119.0431 241.0685 15.30175013105358
STARLINK-30804          
1 58155U 23166F   25253.27389763  .00001668  00000+0  68402-4 0  9998
2 58155  53.1617 337.8525 0000973 103.6325 256.4784 15.30211253105556
